start=new Date('2022-12-14T00:00:00.000Z').valueOf();
sats=[{"FILE":"3698003","APOAPSIS":"541.327","DECAY_DATE":null,"MEAN_MOTION_DOT":"-0.00000569","REF_FRAME":"TEME","INCLINATION":"53.2188","RCS_SIZE":"LARGE","CENTER_NAME":"EARTH","EPHEMERIS_TYPE":"0","TLE_LINE2":"2 52553  53.2188  35.6646 0002295  28.1874 331.9242 15.08842006 32998","PERIAPSIS":"538.152","MEAN_MOTION":"15.08842006","MEAN_MOTION_DDOT":"0.0000000000000","MEAN_ANOMALY":"331.9242","CLASSIFICATION_TYPE":"U","OBJECT_TYPE":"PAYLOAD","ELEMENT_SET_NO":"999","LAUNCH_DATE":"2022-05-13","MEAN_ELEMENT_THEORY":"SGP4","BSTAR":"-0.00001765700000","COUNTRY_CODE":"US","REV_AT_EPOCH":"3299","OBJECT_ID":"2022-051W","TIME_SYSTEM":"UTC","ARG_OF_PERICENTER":"28.1874","GP_ID":"220323102","NORAD_CAT_ID":"52553","SITE":"AFWTR","PERIOD":"95.437","RA_OF_ASC_NODE":"35.6646","TLE_LINE1":"1 52553U 22051W   22347.61551441 -.00000569  00000-0 -17657-4 0  9997","EPOCH":"2022-12-13T14:46:20.445024","ECCENTRICITY":"0.00022950","SEMIMAJOR_AXIS":"6917.874","OBJECT_NAME":"STARLINK-3858"},{"SITE":"AFWTR","NORAD_CAT_ID":"52554","GP_ID":"220323846","OBJECT_ID":"2022-051X","ARG_OF_PERICENTER":"29.0967","TIME_SYSTEM":"UTC","COUNTRY_CODE":"US","REV_AT_EPOCH":"3291","BSTAR":"-0.00009244300000","MEAN_ELEMENT_THEORY":"SGP4","OBJECT_NAME":"STARLINK-3770","SEMIMAJOR_AXIS":"6917.886","ECCENTRICITY":"0.00023130","EPOCH":"2022-12-13T14:05:56.098176","TLE_LINE1":"1 52554U 22051X   22347.58745484 -.00001759  00000-0 -92443-4 0  9994","PERIOD":"95.438","RA_OF_ASC_NODE":"40.7948","TLE_LINE2":"2 52554  53.2173  40.7948 0002313  29.0967 331.0154 15.08838281 32914","CENTER_NAME":"EARTH","RCS_SIZE":"LARGE","EPHEMERIS_TYPE":"0","INCLINATION":"53.2173","DECAY_DATE":null,"MEAN_MOTION_DOT":"-0.00001759","REF_FRAME":"TEME","APOAPSIS":"541.351","FILE":"3698003","LAUNCH_DATE":"2022-05-13","OBJECT_TYPE":"PAYLOAD","ELEMENT_SET_NO":"999","CLASSIFICATION_TYPE":"U","MEAN_ANOMALY":"331.0154","MEAN_MOTION_DDOT":"0.0000000000000","MEAN_MOTION":"15.08838281","PERIAPSIS":"538.151"},{"MEAN_MOTION":"15.08840571","MEAN_MOTION_DDOT":"0.0000000000000","PERIAPSIS":"538.263","OBJECT_TYPE":"PAYLOAD","ELEMENT_SET_NO":"999","MEAN_ANOMALY":"323.5336","CLASSIFICATION_TYPE":"U","LAUNCH_DATE":"2022-05-13","APOAPSIS":"541.224","FILE":"3698003","DECAY_DATE":null,"MEAN_MOTION_DOT":"0.00000850","REF_FRAME":"TEME","CENTER_NAME":"EARTH","RCS_SIZE":"LARGE","EPHEMERIS_TYPE":"0","INCLINATION":"53.2193","TLE_LINE2":"2 52555  53.2193  35.6952 0002140  36.5802 323.5336 15.08840571 32995","TLE_LINE1":"1 52555U 22051Y   22347.60815854  .00000850  00000-0  71487-4 0  9991","RA_OF_ASC_NODE":"35.6952","PERIOD":"95.438","ECCENTRICITY":"0.00021400","EPOCH":"2022-12-13T14:35:44.897856","OBJECT_NAME":"STARLINK-3949","SEMIMAJOR_AXIS":"6917.879","BSTAR":"0.00007148700000","MEAN_ELEMENT_THEORY":"SGP4","OBJECT_ID":"2022-051Y","TIME_SYSTEM":"UTC","ARG_OF_PERICENTER":"36.5802","COUNTRY_CODE":"US","REV_AT_EPOCH":"3299","SITE":"AFWTR","NORAD_CAT_ID":"52555","GP_ID":"220322601"},{"APOAPSIS":"537.133","FILE":"3697847","MEAN_MOTION_DOT":"0.00016339","REF_FRAME":"TEME","DECAY_DATE":null,"EPHEMERIS_TYPE":"0","RCS_SIZE":"LARGE","CENTER_NAME":"EARTH","INCLINATION":"53.2175","TLE_LINE2":"2 52556  53.2175  40.6339 0001348  50.0668 310.0443 15.10000498 32989","MEAN_MOTION_DDOT":"0.0000000000000","MEAN_MOTION":"15.10000498","PERIAPSIS":"535.268","ELEMENT_SET_NO":"999","OBJECT_TYPE":"PAYLOAD","MEAN_ANOMALY":"310.0443","CLASSIFICATION_TYPE":"U","LAUNCH_DATE":"2022-05-13","BSTAR":"0.00100980000000","MEAN_ELEMENT_THEORY":"SGP4","ARG_OF_PERICENTER":"50.0668","TIME_SYSTEM":"UTC","OBJECT_ID":"2022-051Z","REV_AT_EPOCH":"3298","COUNTRY_CODE":"US","SITE":"AFWTR","GP_ID":"220294525","NORAD_CAT_ID":"52556","TLE_LINE1":"1 52556U 22051Z   22347.55237831  .00016339  00000-0  10098-2 0  9997","PERIOD":"95.364","RA_OF_ASC_NODE":"40.6339","ECCENTRICITY":"0.00013480","EPOCH":"2022-12-13T13:15:25.485984","OBJECT_NAME":"STARLINK-3763","SEMIMAJOR_AXIS":"6914.335"},{"LAUNCH_DATE":"2022-05-13","OBJECT_TYPE":"PAYLOAD","ELEMENT_SET_NO":"999","CLASSIFICATION_TYPE":"U","MEAN_ANOMALY":"316.4405","MEAN_MOTION_DDOT":"0.0000000000000","MEAN_MOTION":"15.08843518","PERIAPSIS":"538.364","TLE_LINE2":"2 52557  53.2181  36.0532 0001982  43.6744 316.4405 15.08843518 32981","CENTER_NAME":"EARTH","RCS_SIZE":"LARGE","EPHEMERIS_TYPE":"0","INCLINATION":"53.2181","DECAY_DATE":null,"MEAN_MOTION_DOT":"0.00000508","REF_FRAME":"TEME","APOAPSIS":"541.106","FILE":"3697190","OBJECT_NAME":"STARLINK-3943","SEMIMAJOR_AXIS":"6917.870","ECCENTRICITY":"0.00019820","EPOCH":"2022-12-13T12:44:27.476448","TLE_LINE1":"1 52557U 22051AA  22347.53087357  .00000508  00000-0  50031-4 0  9996","RA_OF_ASC_NODE":"36.0532","PERIOD":"95.437","SITE":"AFWTR","NORAD_CAT_ID":"52557","GP_ID":"220279322","OBJECT_ID":"2022-051AA","ARG_OF_PERICENTER":"43.6744","TIME_SYSTEM":"UTC","COUNTRY_CODE":"US","REV_AT_EPOCH":"3298","BSTAR":"0.00005003100000","MEAN_ELEMENT_THEORY":"SGP4"},{"OBJECT_ID":"2022-051AB","TIME_SYSTEM":"UTC","ARG_OF_PERICENTER":"30.9167","COUNTRY_CODE":"US","REV_AT_EPOCH":"3318","SITE":"AFWTR","NORAD_CAT_ID":"52558","GP_ID":"220295020","BSTAR":"0.00015837000000","MEAN_ELEMENT_THEORY":"SGP4","ECCENTRICITY":"0.00026910","EPOCH":"2022-12-13T12:45:47.030112","OBJECT_NAME":"STARLINK-3954","SEMIMAJOR_AXIS":"6917.901","TLE_LINE1":"1 52558U 22051AB  22347.53179433  .00002233  00000-0  15837-3 0  9995","PERIOD":"95.438","RA_OF_ASC_NODE":"26.0313","CENTER_NAME":"EARTH","RCS_SIZE":"LARGE","EPHEMERIS_TYPE":"0","INCLINATION":"53.2176","TLE_LINE2":"2 52558  53.2176  26.0313 0002691  30.9167 329.1983 15.08833305 33186","APOAPSIS":"541.627","FILE":"3697847","DECAY_DATE":null,"MEAN_MOTION_DOT":"0.00002233","REF_FRAME":"TEME","LAUNCH_DATE":"2022-05-13","MEAN_MOTION_DDOT":"0.0000000000000","MEAN_MOTION":"15.08833305","PERIAPSIS":"537.904","ELEMENT_SET_NO":"999","OBJECT_TYPE":"PAYLOAD","MEAN_ANOMALY":"329.1983","CLASSIFICATION_TYPE":"U"},{"APOAPSIS":"541.114","FILE":"3698003","DECAY_DATE":null,"MEAN_MOTION_DOT":"0.00002541","REF_FRAME":"TEME","CENTER_NAME":"EARTH","RCS_SIZE":"LARGE","EPHEMERIS_TYPE":"0","INCLINATION":"53.2187","TLE_LINE2":"2 52559  53.2187  25.7669 0001890  44.3364 315.7779 15.08820009 33122","MEAN_MOTION_DDOT":"0.0000000000000","MEAN_MOTION":"15.08820009","PERIAPSIS":"538.499","ELEMENT_SET_NO":"999","OBJECT_TYPE":"PAYLOAD","MEAN_ANOMALY":"315.7779","CLASSIFICATION_TYPE":"U","LAUNCH_DATE":"2022-05-13","BSTAR":"0.00017776000000","MEAN_ELEMENT_THEORY":"SGP4","OBJECT_ID":"2022-051AC","ARG_OF_PERICENTER":"44.3364","TIME_SYSTEM":"UTC","COUNTRY_CODE":"US","REV_AT_EPOCH":"3312","SITE":"AFWTR","GP_ID":"220322102","NORAD_CAT_ID":"52559","TLE_LINE1":"1 52559U 22051AC  22347.59163550  .00002541  00000-0  17776-3 0  9991","PERIOD":"95.439","RA_OF_ASC_NODE":"25.7669","ECCENTRICITY":"0.00018900","EPOCH":"2022-12-13T14:11:57.307200","OBJECT_NAME":"STARLINK-3953","SEMIMAJOR_AXIS":"6917.941"},{"EPOCH":"2022-12-13T12:40:29.529120","ECCENTRICITY":"0.00023350","SEMIMAJOR_AXIS":"6917.895","OBJECT_NAME":"STARLINK-3956","RA_OF_ASC_NODE":"26.0533","PERIOD":"95.438","TLE_LINE1":"1 52560U 22051AD  22347.52811955  .00000112  00000-0  25175-4 0  9990","REV_AT_EPOCH":"3311","COUNTRY_CODE":"US","ARG_OF_PERICENTER":"35.2019","TIME_SYSTEM":"UTC","OBJECT_ID":"2022-051AD","GP_ID":"220279584","NORAD_CAT_ID":"52560","SITE":"AFWTR","MEAN_ELEMENT_THEORY":"SGP4","BSTAR":"0.00002517500000","LAUNCH_DATE":"2022-05-13","PERIAPSIS":"538.145","MEAN_MOTION":"15.08835220","MEAN_MOTION_DDOT":"0.0000000000000","CLASSIFICATION_TYPE":"U","MEAN_ANOMALY":"324.9127","ELEMENT_SET_NO":"999","OBJECT_TYPE":"PAYLOAD","INCLINATION":"53.2177","EPHEMERIS_TYPE":"0","RCS_SIZE":"LARGE","CENTER_NAME":"EARTH","TLE_LINE2":"2 52560  53.2177  26.0533 0002335  35.2019 324.9127 15.08835220 33117","FILE":"3697190","APOAPSIS":"541.375","REF_FRAME":"TEME","MEAN_MOTION_DOT":"0.00000112","DECAY_DATE":null},{"MEAN_ELEMENT_THEORY":"SGP4","BSTAR":"0.00002385300000","COUNTRY_CODE":"US","REV_AT_EPOCH":"3292","OBJECT_ID":"2022-051AE","ARG_OF_PERICENTER":"35.5646","TIME_SYSTEM":"UTC","GP_ID":"220323103","NORAD_CAT_ID":"52561","SITE":"AFWTR","RA_OF_ASC_NODE":"40.5429","PERIOD":"95.437","TLE_LINE1":"1 52561U 22051AE  22347.64265230  .00000091  00000-0  23853-4 0  9990","EPOCH":"2022-12-13T15:25:25.158720","ECCENTRICITY":"0.00023810","SEMIMAJOR_AXIS":"6917.844","OBJECT_NAME":"STARLINK-3955","FILE":"3698003","APOAPSIS":"541.356","DECAY_DATE":null,"MEAN_MOTION_DOT":"0.00000091","REF_FRAME":"TEME","INCLINATION":"53.2174","CENTER_NAME":"EARTH","RCS_SIZE":"LARGE","EPHEMERIS_TYPE":"0","TLE_LINE2":"2 52561  53.2174  40.5429 0002381  35.5646 324.5504 15.08851908 32924","PERIAPSIS":"538.062","MEAN_MOTION_DDOT":"0.0000000000000","MEAN_MOTION":"15.08851908","CLASSIFICATION_TYPE":"U","MEAN_ANOMALY":"324.5504","OBJECT_TYPE":"PAYLOAD","ELEMENT_SET_NO":"999","LAUNCH_DATE":"2022-05-13"},{"OBJECT_TYPE":"PAYLOAD","ELEMENT_SET_NO":"999","MEAN_ANOMALY":"327.6852","CLASSIFICATION_TYPE":"U","MEAN_MOTION_DDOT":"0.0000000000000","MEAN_MOTION":"15.08844291","PERIAPSIS":"538.110","LAUNCH_DATE":"2022-05-13","DECAY_DATE":null,"MEAN_MOTION_DOT":"0.00002890","REF_FRAME":"TEME","APOAPSIS":"541.355","FILE":"3698003","TLE_LINE2":"2 52562  53.2189  25.7821 0002345  32.4284 327.6852 15.08844291 33126","CENTER_NAME":"EARTH","RCS_SIZE":"LARGE","EPHEMERIS_TYPE":"0","INCLINATION":"53.2189","TLE_LINE1":"1 52562U 22051AF  22347.58699440  .00002890  00000-0  19958-3 0  9997","PERIOD":"95.437","RA_OF_ASC_NODE":"25.7821","OBJECT_NAME":"STARLINK-3957","SEMIMAJOR_AXIS":"6917.867","ECCENTRICITY":"0.00023450","EPOCH":"2022-12-13T14:05:16.316160","BSTAR":"0.00019958000000","MEAN_ELEMENT_THEORY":"SGP4","SITE":"AFWTR","NORAD_CAT_ID":"52562","GP_ID":"220323847","OBJECT_ID":"2022-051AF","TIME_SYSTEM":"UTC","ARG_OF_PERICENTER":"32.4284","COUNTRY_CODE":"US","REV_AT_EPOCH":"3312"}];
